[{"OBJECT_NAME":"SITRO-AIS 5 (KATYS)","OBJECT_ID":"2023-091L","EPOCH":"2026-03-09T22:36:44.932608","MEAN_MOTION":15.27079182,"ECCENTRICITY":0.00133776,"INCLINATION":97.5176,"RA_OF_ASC_NODE":132.0172,"ARG_OF_PERICENTER":94.5677,"MEAN_ANOMALY":265.709,"EPHEMERIS_TYPE":0,"CLASSIFICATION_TYPE":"U","NORAD_CAT_ID":57176,"ELEMENT_SET_NO":999,"REV_AT_EPOCH":14918,"BSTAR":0.00057530772,"MEAN_MOTION_DOT":0.00015262,"MEAN_MOTION_DDOT":0},{"OBJECT_NAME":"STARLINK-34445","OBJECT_ID":"2025-130V","EPOCH":"2026-03-09T08:55:49.320768","MEAN_MOTION":15.30195162,"ECCENTRICITY":0.00014785,"INCLINATION":53.1602,"RA_OF_ASC_NODE":90.0647,"ARG_OF_PERICENTER":79.581,"MEAN_ANOMALY":280.5358,"EPHEMERIS_TYPE":0,"CLASSIFICATION_TYPE":"U","NORAD_CAT_ID":64457,"ELEMENT_SET_NO":999,"REV_AT_EPOCH":4065,"BSTAR":0.00085833397,"MEAN_MOTION_DOT":0.00025144,"MEAN_MOTION_DDOT":0}]
